NORAD_CAT_ID,OBJECT_NAME,OBJECT_TYPE,EPOCH,MEAN_MOTION,ECCENTRICITY,INCLINATION,RA_OF_ASC_NODE,ARG_OF_PERICENTER,MEAN_ANOMALY,BSTAR,MEAN_MOTION_DOT,MEAN_MOTION_DDOT,TLE_LINE0,TLE_LINE1,TLE_LINE2,SEMIMAJOR_AXIS,PERIOD,APOGEE,PERIGEE,DECAYED
55276.0,STARLINK-5261,PAYLOAD,2024-02-10 16:17:02,14.98329853,0.0002967,70.0006,135.7872,271.3792,88.7027,1.1024e-05,3.9e-07,0.0,0 STARLINK-5261,1 55276U 23010H   24041.67849621  .00000039  00000-0  11024-4 0  9999,2 55276  70.0006 135.7872 0002967 271.3792  88.7027 14.98329853 59422,6950.193,96.107,574.12,569.996,0.0
55276.0,STARLINK-5261,PAYLOAD,2024-02-11 14:42:54,14.98335238,0.0002579,70.0016,133.4312,269.4184,90.6679,8.1177e-05,8.76e-06,0.0,0 STARLINK-5261,1 55276U 23010H   24042.61313083  .00000876  00000-0  81177-4 0  9997,2 55276  70.0016 133.4312 0002579 269.4184  90.6679 14.98335238 59866,6950.177,96.107,573.834,570.249,0.0
55276.0,STARLINK-5261,PAYLOAD,2024-02-11 16:19:02,14.98336888,0.0002511,70.0018,133.2631,265.4634,94.6238,9.1448e-05,9.99e-06,0.0,0 STARLINK-5261,1 55276U 23010H   24042.67988915  .00000999  00000-0  91448-4 0  9993,2 55276  70.0018 133.2631 0002511 265.4634  94.6238 14.98336888 59577,6950.172,96.107,573.782,570.291,0.0
55276.0,STARLINK-5261,PAYLOAD,2024-02-12 11:32:39,14.98331429,0.0002718,70.0012,131.2434,263.582,96.503,7.1728e-05,7.63e-06,0.0,0 STARLINK-5261,1 55276U 23010H   24043.48100988  .00000763  00000-0  71728-4 0  9997,2 55276  70.0012 131.2434 0002718 263.5820  96.5030 14.98331429 59695,6950.188,96.107,573.943,570.164,0.0
55276.0,STARLINK-5261,PAYLOAD,2024-02-12 14:44:55,14.98331143,0.0002649,70.0014,130.9068,258.7211,101.365,9.0718e-05,9.9e-06,0.0,0 STARLINK-5261,1 55276U 23010H   24043.61452923  .00000990  00000-0  90718-4 0  9993,2 55276  70.0014 130.9068 0002649 258.7211 101.3650 14.98331143 60013,6950.189,96.107,573.895,570.213,0.0
55276.0,STARLINK-5261,PAYLOAD,2024-02-13 03:34:00,14.98317821,0.0002794,70.0018,129.5592,264.477,95.6071,0.00020739,2.382e-05,0.0,0 STARLINK-5261,1 55276U 23010H   24044.14861527  .00002382  00000-0  20739-3 0  9998,2 55276  70.0018 129.5592 0002794 264.4770  95.6071 14.98317821 59790,6950.231,96.108,574.037,570.154,0.0
55276.0,STARLINK-5261,PAYLOAD,2024-02-13 13:10:48,14.98328259,0.0003222,70.0,128.55,274.8158,85.2634,-7.9256e-05,-1.039e-05,0.0,0 STARLINK-5261,1 55276U 23010H   24044.54917599 -.00001039  00000-0 -79256-4 0  9992,2 55276  70.0000 128.5500 0003222 274.8158  85.2634 14.98328259 60150,6950.198,96.107,574.303,569.824,0.0
55276.0,STARLINK-5261,PAYLOAD,2024-02-13 19:35:20,14.98336568,0.0003179,69.9999,127.8766,274.0841,85.9954,-3.0614e-05,-4.58e-06,0.0,0 STARLINK-5261,1 55276U 23010H   24044.81620885 -.00000458  00000-0 -30614-4 0  9990,2 55276  69.9999 127.8766 0003179 274.0841  85.9954 14.98336568 59895,6950.173,96.107,574.247,569.828,0.0
55276.0,STARLINK-5261,PAYLOAD,2024-02-14 05:12:09,14.98328893,0.0003098,70.0,126.867,271.8121,88.2683,-6.9355e-05,-9.2e-06,0.0,0 STARLINK-5261,1 55276U 23010H   24045.21677490 -.00000920  00000-0 -69355-4 0  9997,2 55276  70.0000 126.8670 0003098 271.8121  88.2683 14.98328893 59954,6950.196,96.107,574.214,569.908,0.0
55276.0,STARLINK-5261,PAYLOAD,2024-02-14 11:36:40,14.98338072,0.0003132,69.9999,126.1934,272.2021,87.8779,4.8204e-05,4.82e-06,0.0,0 STARLINK-5261,1 55276U 23010H   24045.48380567  .00000482  00000-0  48204-4 0  9993,2 55276  69.9999 126.1934 0003132 272.2021  87.8779 14.98338072 59992,6950.168,96.106,574.21,569.856,0.0
55276.0,STARLINK-5261,PAYLOAD,2024-02-14 14:48:56,14.98341814,0.0003172,69.9999,125.8567,274.4402,85.6394,5.3731e-05,5.48e-06,0.0,0 STARLINK-5261,1 55276U 23010H   24045.61732257  .00000548  00000-0  53731-4 0  9999,2 55276  69.9999 125.8567 0003172 274.4402  85.6394 14.98341814 60316,6950.156,96.106,574.226,569.817,0.0
55276.0,STARLINK-5261,PAYLOAD,2024-02-14 18:01:12,14.98345315,0.0003154,69.9999,125.5201,272.0168,88.063,0.00010729,1.188e-05,0.0,0 STARLINK-5261,1 55276U 23010H   24045.75083781  .00001188  00000-0  10729-3 0  9995,2 55276  69.9999 125.5201 0003154 272.0168  88.0630 14.98345315 60030,6950.146,96.106,574.203,569.818,0.0
55276.0,STARLINK-5261,PAYLOAD,2024-02-14 19:37:22,14.98317343,0.0003089,69.9998,125.3518,274.6461,85.4345,-0.00021281,-2.63e-05,0.0,0 STARLINK-5261,1 55276U 23010H   24045.81762289 -.00002630  00000-0 -21281-3 0  9999,2 55276  69.9998 125.3518 0003089 274.6461  85.4345 14.98317343 60347,6950.232,96.108,574.244,569.95,0.0
55276.0,STARLINK-5261,PAYLOAD,2024-02-15 03:38:02,14.98311015,0.0003157,69.9998,124.5103,271.9244,88.1554,-1.6277e-05,-2.87e-06,0.0,0 STARLINK-5261,1 55276U 23010H   24046.15142355 -.00000287  00000-0 -16277-4 0  9999,2 55276  69.9998 124.5103 0003157 271.9244  88.1554 14.98311015 60097,6950.252,96.108,574.311,569.922,0.0
55276.0,STARLINK-5261,PAYLOAD,2024-02-15 11:38:42,14.98320886,0.000317,69.9998,123.6687,271.7173,88.3623,8.31e-05,8.98e-06,0.0,0 STARLINK-5261,1 55276U 23010H   24046.48521713  .00000898  00000-0  83100-4 0  9999,2 55276  69.9998 123.6687 0003170 271.7173  88.3623 14.98320886 60149,6950.221,96.108,574.289,569.883,0.0
55276.0,STARLINK-5261,PAYLOAD,2024-02-15 13:14:50,14.98322609,0.0003165,69.9998,123.5004,271.5724,88.5072,9.9403e-05,1.093e-05,0.0,0 STARLINK-5261,1 55276U 23010H   24046.55197593  .00001093  00000-0  99403-4 0  9993,2 55276  69.9998 123.5004 0003165 271.5724  88.5072 14.98322609 60454,6950.216,96.107,574.28,569.881,0.0
55276.0,STARLINK-5261,PAYLOAD,2024-02-15 18:03:14,14.98329975,0.0003153,69.9998,122.9952,272.1834,87.8964,0.00010608,1.173e-05,0.0,0 STARLINK-5261,1 55276U 23010H   24046.75225153  .00001173  00000-0  10608-3 0  9997,2 55276  69.9998 122.9952 0003153 272.1834  87.8964 14.98329975 60180,6950.193,96.107,574.249,569.867,0.0
55276.0,STARLINK-5261,PAYLOAD,2024-02-15 19:39:22,14.98327982,0.0003169,69.9998,122.827,271.8798,88.1998,6.6496e-05,7e-06,0.0,0 STARLINK-5261,1 55276U 23010H   24046.81901377  .00000700  00000-0  66496-4 0  9995,2 55276  69.9998 122.8270 0003169 271.8798  88.1998 14.98327982 60495,6950.199,96.107,574.267,569.862,0.0
55276.0,STARLINK-5261,PAYLOAD,2024-02-16 13:16:50,14.98338529,0.000317,69.9997,120.9756,271.2975,88.7821,0.00010694,1.183e-05,0.0,0 STARLINK-5261,1 55276U 23010H   24047.55336584  .00001183  00000-0  10694-3 0  9993,2 55276  69.9997 120.9756 0003170 271.2975  88.7821 14.98338529 60608,6950.167,96.106,574.235,569.828,0.0
55276.0,STARLINK-5261,PAYLOAD,2024-02-16 18:05:14,14.98345895,0.0003176,69.9996,120.4705,271.4577,88.6218,0.0001094,1.213e-05,0.0,0 STARLINK-5261,1 55276U 23010H   24047.75363963  .00001213  00000-0  10940-3 0  9994,2 55276  69.9996 120.4705 0003176 271.4577  88.6218 14.98345895 60335,6950.144,96.106,574.216,569.801,0.0
55276.0,STARLINK-5261,PAYLOAD,2024-02-16 19:41:22,14.98346905,0.0003182,69.9996,120.3022,271.4579,88.6216,9.3641e-05,1.025e-05,0.0,0 STARLINK-5261,1 55276U 23010H   24047.82039868  .00001025  00000-0  93641-4 0  9997,2 55276  69.9996 120.3022 0003182 271.4579  88.6216 14.98346905 60640,6950.141,96.106,574.217,569.794,0.0
55276.0,STARLINK-5261,PAYLOAD,2024-02-17 03:42:04,14.98330941,0.0003074,69.9996,119.4608,271.9384,88.1423,-0.00014221,-1.789e-05,0.0,0 STARLINK-5261,1 55276U 23010H   24048.15421471 -.00001789  00000-0 -14221-3 0  9994,2 55276  69.9996 119.4608 0003074 271.9384  88.1423 14.98330941 60398,6950.19,96.107,574.191,569.918,0.0
55276.0,STARLINK-5261,PAYLOAD,2024-02-17 13:18:51,14.98332256,0.0003057,69.9996,118.4507,271.8976,88.1833,0.00012585,1.409e-05,0.0,0 STARLINK-5261,1 55276U 23010H   24048.55476839  .00001409  00000-0  12585-3 0  9994,2 55276  69.9996 118.4507 0003057 271.8976  88.1833 14.98332256 60758,6950.186,96.107,574.176,569.926,0.0
55276.0,STARLINK-5261,PAYLOAD,2024-02-17 19:43:23,14.98338141,0.0003052,69.9995,117.7773,271.894,88.1869,0.00010645,1.178e-05,0.0,0 STARLINK-5261,1 55276U 23010H   24048.82180395  .00001178  00000-0  10645-3 0  9991,2 55276  69.9995 117.7773 0003052 271.8940  88.1869 14.98338141 60499,6950.168,96.106,574.154,569.912,0.0
55276.0,STARLINK-5261,PAYLOAD,2024-02-17 21:19:32,14.98331239,0.0003056,69.9995,117.609,272.108,87.9729,1.856e-05,1.28e-06,0.0,0 STARLINK-5261,1 55276U 23010H   24048.88857078  .00000128  00000-0  18560-4 0  9995,2 55276  69.9995 117.6090 0003056 272.1080  87.9729 14.98331239 60801,6950.189,96.107,574.178,569.93,0.0
55276.0,STARLINK-5261,PAYLOAD,2024-02-18 03:44:05,14.98329334,0.0003041,69.9995,116.9359,270.9241,89.1569,-0.00012265,-1.556e-05,0.0,0 STARLINK-5261,1 55276U 23010H   24049.15561547 -.00001556  00000-0 -12265-3 0  9992,2 55276  69.9995 116.9359 0003041 270.9241  89.1569 14.98329334 60540,6950.195,96.107,574.174,569.946,0.0
55276.0,STARLINK-5261,PAYLOAD,2024-02-18 14:57:00,14.98337199,0.0003027,69.9995,115.7576,271.8204,88.2608,2.8657e-05,2.49e-06,0.0,0 STARLINK-5261,1 55276U 23010H   24049.62292656  .00000249  00000-0  28657-4 0  9995,2 55276  69.9995 115.7576 0003027 271.8204  88.2608 14.98337199 60914,6950.171,96.107,574.139,569.932,0.0
55276.0,STARLINK-5261,PAYLOAD,2024-02-18 18:09:16,14.98353771,0.0003092,69.9994,115.4208,271.271,88.8095,-0.00017482,-2.18e-05,0.0,0 STARLINK-5261,1 55276U 23010H   24049.75643926 -.00002180  00000-0 -17482-3 0  9990,2 55276  69.9994 115.4208 0003092 271.2710  88.8095 14.98353771 60639,6950.119,96.105,574.133,569.835,0.0
55276.0,STARLINK-5261,PAYLOAD,2024-02-18 21:21:32,14.98340988,0.0003056,69.9994,115.0841,274.1026,85.9784,-1.8721e-05,-3.16e-06,0.0,0 STARLINK-5261,1 55276U 23010H   24049.88996368 -.00000316  00000-0 -18721-4 0  9992,2 55276  69.9994 115.0841 0003056 274.1026  85.9784 14.98340988 60954,6950.159,96.106,574.148,569.9,0.0
55276.0,STARLINK-5261,PAYLOAD,2024-02-19 03:46:06,14.98330683,0.0003033,69.9994,114.4109,273.552,86.5292,-0.00021297,-2.633e-05,0.0,0 STARLINK-5261,1 55276U 23010H   24050.15701509 -.00002633  00000-0 -21297-3 0  9990,2 55276  69.9994 114.4109 0003033 273.5520  86.5292 14.98330683 60694,6950.191,96.107,574.164,569.948,0.0
